[Satellite]
VERSION=1.1
NAME=MOLNIYA 3-3
NICKNAME=MOLNIYA 3-3
TLE1=1 08425U 75105A   15053.60677772 -.00000194  00000-0 -85394-3 0  9991
TLE2=2 08425  61.5663 262.1237 7414955 252.3804  20.5043  2.00706466287787
